ORBCOMM FM20            
1 25416U 98046D   26018.91601833  .00000565  00000+0  23295-3 0  9992
2 25416  44.9929 239.2316 0000881 349.6208  10.4622 14.37757768435307
ORBCOMM FM16            
1 25417U 98046E   26018.92090399  .00000733  00000+0  27752-3 0  9992
2 25417  44.9919 227.7983 0003940 313.4579  46.5941 14.39651113435334
ORBCOMM FM15            
1 25418U 98046F   26018.95182176  .00000770  00000+0  29122-3 0  9995
2 25418  44.9953 233.4581 0003742 315.5608  44.4940 14.39277457435327
ORBCOMM FM14            
1 25419U 98046G   26018.63349429  .00000789  00000+0  29489-3 0  9993
2 25419  44.9941 232.5399 0002477 311.5538  48.5099 14.39704379435254
ORBCOMM FM13            
1 25420U 98046H   26018.87544163  .00000607  00000+0  24412-3 0  9993
2 25420  44.9961 241.5806 0004652 289.8964  70.1383 14.38295316434282
ORBCOMM FM21            
1 25475U 98053A   26018.58931085  .00000691  00000+0  27368-3 0  9998
2 25475  45.0098 329.0313 0002446 278.9435  81.1136 14.37881398428248
ORBCOMM FM22            
1 25476U 98053B   26018.87625995  .00000876  00000+0  32655-3 0  9991
2 25476  45.0088 320.6653 0003568 260.1931  99.8515 14.39083405428334
ORBCOMM FM23            
1 25477U 98053C   26018.90553578  .00000784  00000+0  30257-3 0  9997
2 25477  45.0098 329.3024 0003017 262.5995  97.4510 14.38131726428449
